{
  "type": "FeatureCollection",
  "features": [
    {
      "type": "Feature",
      "properties": {
        "norad_id": 61183,
        "name": "GSAT0226 (GALILEO 31)",
        "group": "gnss",
        "lat": 37.18469987520154,
        "lon": 14.261113890152906,
        "alt_km": 23214.303549771957,
        "timestamp": "2025-12-27T10:28:59.039214+00:00",
        "meta_object_name": "GSAT0226 (GALILEO 31)",
        "meta_object_id": "2024-167B",
        "meta_epoch": "2025-12-25T01:44:41.758656",
        "meta_mean_motion": 1.70473602,
        "meta_eccentricity": 0.00012523,
        "meta_inclination": 55.236,
        "meta_ra_of_asc_node": 226.0978,
        "meta_arg_of_pericenter": 109.4084,
        "meta_mean_anomaly": 12.3648,
        "meta_ephemeris_type": 0,
        "meta_classification_type": "U",
        "meta_norad_cat_id": 61183,
        "meta_element_set_no": 999,
        "meta_rev_at_epoch": 788,
        "meta_bstar": 0,
        "meta_mean_motion_dot": 7.1e-07,
        "meta_mean_motion_ddot": 0,
        "tle_line1": "1 61183U 24167B   25359.07270554  .00000071  00000+0  00000+0 0  9999",
        "tle_line2": "2 61183  55.2360 226.0978 0001252 109.4084  12.3648  1.70473602  7889"
      },
      "geometry": {
        "type": "Point",
        "coordinates": [
          14.261113890152906,
          37.18469987520154
        ]
      }
    },
    {
      "type": "Feature",
      "properties": {
        "norad_id": 61186,
        "name": "BEIDOU-3 M25 (C47)",
        "group": "gnss",
        "lat": -37.575683683367025,
        "lon": 161.29080211858098,
        "alt_km": 21528.094460697317,
        "timestamp": "2025-12-27T10:28:59.039226+00:00",
        "meta_object_name": "BEIDOU-3 M25 (C47)",
        "meta_object_id": "2024-168B",
        "meta_epoch": "2025-12-27T04:57:33.161184",
        "meta_mean_motion": 1.86229887,
        "meta_eccentricity": 0.0005389,
        "meta_inclination": 54.629,
        "meta_ra_of_asc_node": 308.2197,
        "meta_arg_of_pericenter": 300.5492,
        "meta_mean_anomaly": 133.5608,
        "meta_ephemeris_type": 0,
        "meta_classification_type": "U",
        "meta_norad_cat_id": 61186,
        "meta_element_set_no": 999,
        "meta_rev_at_epoch": 858,
        "meta_bstar": 0,
        "meta_mean_motion_dot": -6e-07,
        "meta_mean_motion_ddot": 0,
        "tle_line1": "1 61186U 24168B   25361.20663381 -.00000060  00000+0  00000+0 0  9994",
        "tle_line2": "2 61186  54.6290 308.2197 0005389 300.5492 133.5608  1.86229887  8586"
      },
      "geometry": {
        "type": "Point",
        "coordinates": [
          161.29080211858098,
          -37.575683683367025
        ]
      }
    },
    {
      "type": "Feature",
      "properties": {
        "norad_id": 61187,
        "name": "BEIDOU-3 M27 (C49)",
        "group": "gnss",
        "lat": 2.75202710636485,
        "lon": -49.865717240387035,
        "alt_km": 21521.46574011007,
        "timestamp": "2025-12-27T10:28:59.039240+00:00",
        "meta_object_name": "BEIDOU-3 M27 (C49)",
        "meta_object_id": "2024-168C",
        "meta_epoch": "2025-12-26T02:09:38.712960",
        "meta_mean_motion": 1.86230112,
        "meta_eccentricity": 0.00025351,
        "meta_inclination": 54.6256,
        "meta_ra_of_asc_node": 308.2421,
        "meta_arg_of_pericenter": 341.7609,
        "meta_mean_anomaly": 198.677,
        "meta_ephemeris_type": 0,
        "meta_classification_type": "U",
        "meta_norad_cat_id": 61187,
        "meta_element_set_no": 999,
        "meta_rev_at_epoch": 603,
        "meta_bstar": 0,
        "meta_mean_motion_dot": -5.6e-07,
        "meta_mean_motion_ddot": 0,
        "tle_line1": "1 61187U 24168C   25360.09003140 -.00000056  00000+0  00000+0 0  9997",
        "tle_line2": "2 61187  54.6256 308.2421 0002535 341.7609 198.6770  1.86230112  6039"
      },
      "geometry": {
        "type": "Point",
        "coordinates": [
          -49.865717240387035,
          2.75202710636485
        ]
      }
    },
    {
      "type": "Feature",
      "properties": {
        "norad_id": 62339,
        "name": "GPS BIII-7  (PRN 01)",
        "group": "gnss",
        "lat": 51.48693200633598,
        "lon": 43.119981358344916,
        "alt_km": 20173.70231312083,
        "timestamp": "2025-12-27T10:28:59.039251+00:00",
        "meta_object_name": "GPS BIII-7  (PRN 01)",
        "meta_object_id": "2024-242A",
        "meta_epoch": "2025-12-26T14:04:39.646272",
        "meta_mean_motion": 2.00567975,
        "meta_eccentricity": 0.0012885,
        "meta_inclination": 54.9194,
        "meta_ra_of_asc_node": 341.1802,
        "meta_arg_of_pericenter": 346.4396,
        "meta_mean_anomaly": 192.481,
        "meta_ephemeris_type": 0,
        "meta_classification_type": "U",
        "meta_norad_cat_id": 62339,
        "meta_element_set_no": 999,
        "meta_rev_at_epoch": 779,
        "meta_bstar": 0,
        "meta_mean_motion_dot": -6e-07,
        "meta_mean_motion_ddot": 0,
        "tle_line1": "1 62339U 24242A   25360.58656998 -.00000060  00000+0  00000+0 0  9994",
        "tle_line2": "2 62339  54.9194 341.1802 0012885 346.4396 192.4810  2.00567975  7794"
      },
      "geometry": {
        "type": "Point",
        "coordinates": [
          43.119981358344916,
          51.48693200633598
        ]
      }
    },
    {
      "type": "Feature",
      "properties": {
        "norad_id": 62850,
        "name": "NVS-02 (IRNSS-1K)",
        "group": "gnss",
        "lat": -9.220924991797308,
        "lon": 167.4225702319035,
        "alt_km": 35752.94768496316,
        "timestamp": "2025-12-27T10:28:59.039265+00:00",
        "meta_object_name": "NVS-02 (IRNSS-1K)",
        "meta_object_id": "2025-020A",
        "meta_epoch": "2025-12-26T08:00:18.646560",
        "meta_mean_motion": 2.17605261,
        "meta_eccentricity": 0.7347253,
        "meta_inclination": 20.9524,
        "meta_ra_of_asc_node": 322.7337,
        "meta_arg_of_pericenter": 35.0556,
        "meta_mean_anomaly": 356.1261,
        "meta_ephemeris_type": 0,
        "meta_classification_type": "U",
        "meta_norad_cat_id": 62850,
        "meta_element_set_no": 999,
        "meta_rev_at_epoch": 721,
        "meta_bstar": 0.00027034114,
        "meta_mean_motion_dot": 2.77e-06,
        "meta_mean_motion_ddot": 0,
        "tle_line1": "1 62850U 25020A   25360.33354915  .00000277  00000+0  27034-3 0  9993",
        "tle_line2": "2 62850  20.9524 322.7337 7347253  35.0556 356.1261  2.17605261  7211"
      },
      "geometry": {
        "type": "Point",
        "coordinates": [
          167.4225702319035,
          -9.220924991797308
        ]
      }
    },
    {
      "type": "Feature",
      "properties": {
        "norad_id": 62876,
        "name": "QZS-6 (QZSS/PRN 200)",
        "group": "gnss",
        "lat": -0.0700868518960859,
        "lon": -16.04786180904907,
        "alt_km": 35783.114553948,
        "timestamp": "2025-12-27T10:28:59.039277+00:00",
        "meta_object_name": "QZS-6 (QZSS/PRN 200)",
        "meta_object_id": "2025-023A",
        "meta_epoch": "2025-12-26T22:01:29.387136",
        "meta_mean_motion": 1.00269714,
        "meta_eccentricity": 0.00017716,
        "meta_inclination": 0.0632,
        "meta_ra_of_asc_node": 75.6536,
        "meta_arg_of_pericenter": 207.069,
        "meta_mean_anomaly": 233.8377,
        "meta_ephemeris_type": 0,
        "meta_classification_type": "U",
        "meta_norad_cat_id": 62876,
        "meta_element_set_no": 999,
        "meta_rev_at_epoch": 323,
        "meta_bstar": 0,
        "meta_mean_motion_dot": -2.11e-06,
        "meta_mean_motion_ddot": 0,
        "tle_line1": "1 62876U 25023A   25360.91770124 -.00000211  00000+0  00000+0 0  9991",
        "tle_line2": "2 62876   0.0632  75.6536 0001771 207.0690 233.8377  1.00269714  3235"
      },
      "geometry": {
        "type": "Point",
        "coordinates": [
          -16.04786180904907,
          -0.0700868518960859
        ]
      }
    },
    {
      "type": "Feature",
      "properties": {
        "norad_id": 63130,
        "name": "COSMOS 2584 (704K)",
        "group": "gnss",
        "lat": 30.702689509696047,
        "lon": 94.73120048979081,
        "alt_km": 19146.032383242466,
        "timestamp": "2025-12-27T10:28:59.039291+00:00",
        "meta_object_name": "COSMOS 2584 (704K)",
        "meta_object_id": "2025-042A",
        "meta_epoch": "2025-12-24T02:34:25.549824",
        "meta_mean_motion": 2.13102981,
        "meta_eccentricity": 0.00077651,
        "meta_inclination": 64.9819,
        "meta_ra_of_asc_node": 78.7588,
        "meta_arg_of_pericenter": 220.6893,
        "meta_mean_anomaly": 139.3012,
        "meta_ephemeris_type": 0,
        "meta_classification_type": "U",
        "meta_norad_cat_id": 63130,
        "meta_element_set_no": 999,
        "meta_rev_at_epoch": 631,
        "meta_bstar": 0,
        "meta_mean_motion_dot": 1e-08,
        "meta_mean_motion_ddot": 0,
        "tle_line1": "1 63130U 25042A   25358.10724016  .00000001  00000+0  00000+0 0  9999",
        "tle_line2": "2 63130  64.9819  78.7588 0007765 220.6893 139.3012  2.13102981  6316"
      },
      "geometry": {
        "type": "Point",
        "coordinates": [
          94.73120048979081,
          30.702689509696047
        ]
      }
    }
  ]
}